[{"OBJECT_NAME":"TEVEL2-7","OBJECT_ID":"2025-052AE","EPOCH":"2026-03-09T15:52:01.887744","MEAN_MOTION":15.28414096,"ECCENTRICITY":0.00081048,"INCLINATION":97.4054,"RA_OF_ASC_NODE":324.3041,"ARG_OF_PERICENTER":124.683,"MEAN_ANOMALY":235.5175,"EPHEMERIS_TYPE":0,"CLASSIFICATION_TYPE":"U","NORAD_CAT_ID":63238,"ELEMENT_SET_NO":999,"REV_AT_EPOCH":5480,"BSTAR":0.00069668191,"MEAN_MOTION_DOT":0.00019244,"MEAN_MOTION_DDOT":0},{"OBJECT_NAME":"STARLINK-35593","OBJECT_ID":"2025-236X","EPOCH":"2026-03-09T10:07:14.554272","MEAN_MOTION":15.30193624,"ECCENTRICITY":0.00012594,"INCLINATION":53.1598,"RA_OF_ASC_NODE":105.1111,"ARG_OF_PERICENTER":73.6462,"MEAN_ANOMALY":286.4677,"EPHEMERIS_TYPE":0,"CLASSIFICATION_TYPE":"U","NORAD_CAT_ID":66107,"ELEMENT_SET_NO":999,"REV_AT_EPOCH":2290,"BSTAR":0.00062980482,"MEAN_MOTION_DOT":0.00018336,"MEAN_MOTION_DDOT":0}]
