TEVEL2-7                
1 63238U 25052AE  26068.66113295  .00019244  00000+0  69668-3 0  9998
2 63238  97.4054 324.3041 0008105 124.6830 235.5175 15.28414096 54803
STARLINK-35593          
1 66107U 25236X   26068.42169623  .00018336  00000+0  62980-3 0  9991
2 66107  53.1598 105.1111 0001259  73.6462 286.4677 15.30193624 22905
